{
  "type": "FeatureCollection",
  "features": [
    {
      "type": "Feature",
      "geometry": {
        "type": "LineString",
        "coordinates": [
          [
            103.73999999999997,
            1.3300000000000003
          ],
          [
            103.73999999999997,
            1.4086510175911218
          ],
          [
            103.74001154396427,
            1.4088270951283246
          ],
          [
            103.74004597833678,
            1.409000159930048
          ],
          [
            103.74010271393583,
            1.4091672508095514
          ],
          [
            103.74018077999958,
            1.409325508795561
          ],
          [
            103.74027884079604,
            1.409472226050058
          ],
          [
            103.74039521847777,
            1.4096048922001407
          ],
          [
            103.74052792179043,
            1.4097212372911996
          ],
          [
            103.74067468014348,
            1.4098192706264685
          ],
          [
            103.74083298246086,
            1.4098973148284022
          ],
          [
            103.74100012014601,
            1.4099540345390669
          ],
          [
            103.74117323342679,
            1.4099884592684877
          ],
          [
            103.74134936028699,
            1.41
          ],
          [
            103.79944096597191,
            1.41
          ],
          [
            103.7996171240569,
            1.4099884551584494
          ],
          [
            103.79979026695474,
            1.4099540182395867
          ],
          [
            103.79995743108748,
            1.4098972786784838
          ],
          [
            103.80011575521178,
            1.409819207650507
          ],
          [
            103.80026252939327,
            1.4097211414483195
          ],
          [
            103.80039524139058,
            1.4096047586093998
          ],
          [
            103.85960491513163,
            1.3503950848683537
          ],
          [
            103.85972125505907,
            1.350262427408047
          ],
          [
            103.85981928298379,
            1.3501157259828314
          ],
          [
            103.85989732221806,
            1.3499574898009954
          ],
          [
            103.85995403796436,
            1.3497904253634343
          ],
          [
            103.85998846014611,
            1.3496173901711606
          ],
          [
            103.85999999999997,
            1.3494413438500785
          ],
          [
            103.85999999999997,
            1.28
          ]
        ]
      },
      "properties": {
        "ofm": "line",
        "id": "line-nsl",
        "name": "North South Line",
        "mode": "Metro",
        "minRadius": 150,
        "color": "#d42e12",
        "visible": true,
        "nodes": [
          [
            1.33,
            103.74
          ],
          [
            1.41,
            103.74
          ],
          [
            1.41,
            103.8
          ],
          [
            1.35,
            103.86
          ],
          [
            1.28,
            103.86
          ]
        ],
        "segments": [
          {
            "profile": "manual",
            "guide": []
          },
          {
            "profile": "manual",
            "guide": []
          },
          {
            "profile": "manual",
            "guide": []
          },
          {
            "profile": "manual",
            "guide": []
          }
        ],
        "branchOf": null
      }
    },
    {
      "type": "Feature",
      "geometry": {
        "type": "Polygon",
        "coordinates": [
          [
            [
              103.73865065406815,
              1.3313489824088784
            ],
            [
              103.74134934593178,
              1.3313489824088784
            ],
            [
              103.74134934593178,
              1.3286510175911221
            ],
            [
              103.73865065406815,
              1.3286510175911221
            ],
            [
              103.73865065406815,
              1.3313489824088784
            ]
          ]
        ]
      },
      "properties": {
        "ofm": "station-area",
        "id": "station-ns1",
        "lineId": "line-nsl",
        "name": "Jurong East",
        "code": "NS1",
        "t": 0,
        "offsets": [
          {
            "north": 150,
            "east": -150
          },
          {
            "north": 150,
            "east": 150
          },
          {
            "north": -150,
            "east": 150
          },
          {
            "north": -150,
            "east": -150
          }
        ]
      }
    },
    {
      "type": "Feature",
      "geometry": {
        "type": "Point",
        "coordinates": [
          103.73999999999997,
          1.390000017620483
        ]
      },
      "properties": {
        "ofm": "station",
        "id": "station-ns4",
        "lineId": "line-nsl",
        "name": "Choa Chu Kang",
        "code": "NS4",
        "t": 0.20399519445164455
      }
    },
    {
      "type": "Feature",
      "geometry": {
        "type": "Point",
        "coordinates": [
          103.86,
          1.28
        ]
      },
      "properties": {
        "ofm": "station",
        "id": "station-ns27",
        "lineId": "line-nsl",
        "name": "Marina Bay",
        "code": "NS27",
        "t": 1
      }
    },
    {
      "type": "Feature",
      "geometry": {
        "type": "LineString",
        "coordinates": [
          [
            103.73999999999997,
            1.3300000000000003
          ],
          [
            103.76960476894445,
            1.3003952310555424
          ],
          [
            103.76973747739481,
            1.3002788511368977
          ],
          [
            103.76988424717196,
            1.3001807874774038
          ],
          [
            103.77004256617914,
            1.3001027185247958
          ],
          [
            103.77020972464418,
            1.30004598049941
          ],
          [
            103.77038286149957,
            1.3000115445235791
          ],
          [
            103.77055901335237,
            1.2999999999999998
          ],
          [
            103.82944098664761,
            1.2999999999999998
          ],
          [
            103.8296171385004,
            1.299988455476422
          ],
          [
            103.8297902753558,
            1.2999540195005925
          ],
          [
            103.82995743382084,
            1.2998972814752079
          ],
          [
            103.83011575282801,
            1.2998192125226011
          ],
          [
            103.83026252260515,
            1.2997211488631082
          ],
          [
            103.83039523105553,
            1.2996047689444565
          ],
          [
            103.84999999999998,
            1.28
          ]
        ]
      },
      "properties": {
        "ofm": "line",
        "id": "line-ewl",
        "name": "East West Line",
        "mode": "Metro",
        "minRadius": 150,
        "color": "#009645",
        "visible": true,
        "nodes": [
          [
            1.33,
            103.74
          ],
          [
            1.3,
            103.77
          ],
          [
            1.3,
            103.83
          ],
          [
            1.28,
            103.85
          ]
        ],
        "segments": [
          {
            "profile": "manual",
            "guide": []
          },
          {
            "profile": "manual",
            "guide": []
          },
          {
            "profile": "manual",
            "guide": []
          }
        ],
        "branchOf": null
      }
    },
    {
      "type": "Feature",
      "geometry": {
        "type": "Point",
        "coordinates": [
          103.73999999999998,
          1.3300000000000003
        ]
      },
      "properties": {
        "ofm": "station",
        "id": "station-ew24",
        "lineId": "line-ewl",
        "name": "Jurong East",
        "code": "EW24",
        "t": 0
      }
    },
    {
      "type": "Feature",
      "geometry": {
        "type": "Point",
        "coordinates": [
          103.7999999995961,
          1.2999999999999996
        ]
      },
      "properties": {
        "ofm": "station",
        "id": "station-ew21",
        "lineId": "line-ewl",
        "name": "Buona Vista",
        "code": "EW21",
        "t": 0.5541490436143659
      }
    },
    {
      "type": "Feature",
      "geometry": {
        "type": "Point",
        "coordinates": [
          103.85,
          1.28
        ]
      },
      "properties": {
        "ofm": "station",
        "id": "station-ew14",
        "lineId": "line-ewl",
        "name": "Raffles Place",
        "code": "EW14",
        "t": 1
      }
    },
    {
      "type": "Feature",
      "geometry": {
        "type": "LineString",
        "coordinates": [
          [
            103.73999999999997,
            1.39
          ],
          [
            103.71026338851274,
            1.419736611487266
          ],
          [
            103.7101858288763,
            1.4198250492638693
          ],
          [
            103.71012047725672,
            1.4199228492483578
          ],
          [
            103.7100684514037,
            1.4200283387062307
          ],
          [
            103.71003064114808,
            1.4201397133851008
          ],
          [
            103.71000769318233,
            1.4202550683739523
          ],
          [
            103.71,
            1.4203724306840326
          ],
          [
            103.71,
            1.4400000000000002
          ]
        ]
      },
      "properties": {
        "ofm": "line",
        "id": "line-bpl",
        "name": "Bukit Panjang LRT",
        "mode": "Monorail",
        "minRadius": 100,
        "color": "#748477",
        "visible": true,
        "nodes": [
          [
            1.39,
            103.74
          ],
          [
            1.42,
            103.71
          ],
          [
            1.44,
            103.71
          ]
        ],
        "segments": [
          {
            "profile": "manual",
            "guide": []
          },
          {
            "profile": "manual",
            "guide": []
          }
        ],
        "branchOf": null
      }
    },
    {
      "type": "Feature",
      "geometry": {
        "type": "Point",
        "coordinates": [
          103.73999999999998,
          1.39
        ]
      },
      "properties": {
        "ofm": "station",
        "id": "station-bp1",
        "lineId": "line-bpl",
        "name": "Choa Chu Kang",
        "code": "BP1",
        "t": 0
      }
    },
    {
      "type": "Feature",
      "geometry": {
        "type": "Point",
        "coordinates": [
          103.70999999999998,
          1.4400000000000002
        ]
      },
      "properties": {
        "ofm": "station",
        "id": "station-bp2",
        "lineId": "line-bpl",
        "name": "South View",
        "code": "BP2",
        "t": 1
      }
    },
    {
      "type": "Feature",
      "geometry": {
        "type": "LineString",
        "coordinates": [
          [
            103.78000000000002,
            1.46
          ],
          [
            103.78000000000002,
            1.421348982408878
          ],
          [
            103.78001154428927,
            1.4211729048716755
          ],
          [
            103.78004597963103,
            1.420999840069952
          ],
          [
            103.78010271682706,
            1.4208327491904484
          ],
          [
            103.78018078508822,
            1.4206744912044391
          ],
          [
            103.78027884864488,
            1.420527773949942
          ],
          [
            103.78039522960243,
            1.4203951077998591
          ],
          [
            103.78052793665043,
            1.4202787627088005
          ],
          [
            103.78067469913444,
            1.4201807293735313
          ],
          [
            103.78083300590772,
            1.4201026851715977
          ],
          [
            103.78100014829747,
            1.4200459654609332
          ],
          [
            103.78117326645105,
            1.4200115407315121
          ],
          [
            103.78134939826887,
            1.42
          ],
          [
            103.81944093911078,
            1.42
          ],
          [
            103.81961710529235,
            1.4199884547453587
          ],
          [
            103.81979025604035,
            1.419954016601365
          ],
          [
            103.81995742753632,
            1.4198972750451526
          ],
          [
            103.82011575830857,
            1.4198192013209878
          ],
          [
            103.82026253821192,
            1.4197211318154987
          ],
          [
            103.82039525481723,
            1.4196047451827674
          ],
          [
            103.85000000000001,
            1.39
          ]
        ]
      },
      "properties": {
        "ofm": "line",
        "id": "line-tel",
        "name": "Thomson-East Coast Line",
        "mode": "Metro",
        "minRadius": 150,
        "color": "#9d5b25",
        "visible": true,
        "nodes": [
          [
            1.46,
            103.78
          ],
          [
            1.42,
            103.78
          ],
          [
            1.42,
            103.82
          ],
          [
            1.39,
            103.85
          ]
        ],
        "segments": [
          {
            "profile": "manual",
            "guide": []
          },
          {
            "profile": "manual",
            "guide": []
          },
          {
            "profile": "manual",
            "guide": []
          }
        ],
        "branchOf": null
      }
    },
    {
      "type": "Feature",
      "geometry": {
        "type": "Point",
        "coordinates": [
          103.78,
          1.46
        ]
      },
      "properties": {
        "ofm": "station",
        "id": "station-te1",
        "lineId": "line-tel",
        "name": "Woodlands North",
        "code": "TE1",
        "t": 0
      }
    },
    {
      "type": "Feature",
      "geometry": {
        "type": "Point",
        "coordinates": [
          103.78,
          1.4299999394189824
        ]
      },
      "properties": {
        "ofm": "station",
        "id": "station-te2",
        "lineId": "line-tel",
        "name": "Woodlands",
        "code": "TE2",
        "t": 0.24637013519317333
      }
    },
    {
      "type": "Feature",
      "geometry": {
        "type": "Point",
        "coordinates": [
          103.80999999846009,
          1.42
        ]
      },
      "properties": {
        "ofm": "station",
        "id": "station-te3",
        "lineId": "line-tel",
        "name": "Woodlands South",
        "code": "TE3",
        "t": 0.5700194796706267
      }
    },
    {
      "type": "Feature",
      "geometry": {
        "type": "Point",
        "coordinates": [
          103.85000000000001,
          1.390000000000004
        ]
      },
      "properties": {
        "ofm": "station",
        "id": "station-te4",
        "lineId": "line-tel",
        "name": "Springleaf",
        "code": "TE4",
        "t": 0.9999999999999514
      }
    },
    {
      "type": "Feature",
      "geometry": {
        "type": "LineString",
        "coordinates": [
          [
            103.78,
            1.42
          ],
          [
            103.80960474154256,
            1.4496047415425475
          ],
          [
            103.80973745939718,
            1.4497211292038532
          ],
          [
            103.80988424085184,
            1.4498191996049306
          ],
          [
            103.81004257342651,
            1.4498972740600846
          ],
          [
            103.81020974691882,
            1.4499540161572109
          ],
          [
            103.81038289979519,
            1.4499884546333617
          ],
          [
            103.81055906817195,
            1.45
          ],
          [
            103.85,
            1.45
          ]
        ]
      },
      "properties": {
        "ofm": "line",
        "id": "line-tel-branch",
        "name": "Thomson-East Coast Line branch",
        "mode": "Metro",
        "minRadius": 150,
        "color": "#9d5b25",
        "visible": true,
        "nodes": [
          [
            1.42,
            103.78
          ],
          [
            1.45,
            103.81
          ],
          [
            1.45,
            103.85
          ]
        ],
        "segments": [
          {
            "profile": "manual",
            "guide": []
          },
          {
            "profile": "manual",
            "guide": []
          }
        ],
        "branchOf": {
          "lineId": "line-tel",
          "nodeIndex": 1,
          "branchNodeIndex": 0
        }
      }
    },
    {
      "type": "Feature",
      "geometry": {
        "type": "Point",
        "coordinates": [
          103.82000001170493,
          1.45
        ]
      },
      "properties": {
        "ofm": "station",
        "id": "station-tb1",
        "lineId": "line-tel-branch",
        "name": "Branch Alpha",
        "code": "TB1",
        "t": 0.6358089391733425
      }
    },
    {
      "type": "Feature",
      "geometry": {
        "type": "Point",
        "coordinates": [
          103.85,
          1.45
        ]
      },
      "properties": {
        "ofm": "station",
        "id": "station-tb2",
        "lineId": "line-tel-branch",
        "name": "Branch Beta",
        "code": "TB2",
        "t": 1
      }
    },
    {
      "type": "Feature",
      "geometry": {
        "type": "LineString",
        "coordinates": [
          [
            103.90000000000002,
            1.4
          ],
          [
            103.90000000000002,
            1.4291006783940812
          ],
          [
            103.90000769615796,
            1.429218063418883
          ],
          [
            103.90003065294839,
            1.4293334399533653
          ],
          [
            103.90006847757424,
            1.4294448338730343
          ],
          [
            103.90012052284571,
            1.4295503391970406
          ],
          [
            103.90018589825374,
            1.429648150700039
          ],
          [
            103.90026348520698,
            1.429736594800094
          ],
          [
            103.90035195617119,
            1.429814158194133
          ],
          [
            103.90044979738359,
            1.429879513750979
          ],
          [
            103.90055533475393,
            1.4299315432189348
          ],
          [
            103.90066676250855,
            1.429969356359378
          ],
          [
            103.90078217408768,
            1.4299923061789919
          ],
          [
            103.90089959476717,
            1.43
          ],
          [
            103.92910040523283,
            1.43
          ],
          [
            103.92921782591233,
            1.4299923061789919
          ],
          [
            103.92933323749145,
            1.429969356359378
          ],
          [
            103.92944466524607,
            1.4299315432189348
          ],
          [
            103.92955020261641,
            1.429879513750979
          ],
          [
            103.9296480438288,
            1.429814158194133
          ],
          [
            103.92973651479302,
            1.429736594800094
          ],
          [
            103.92981410174626,
            1.429648150700039
          ],
          [
            103.9298794771543,
            1.4295503391970406
          ],
          [
            103.92993152242576,
            1.4294448338730343
          ],
          [
            103.92996934705162,
            1.4293334399533653
          ],
          [
            103.92999230384204,
            1.429218063418883
          ],
          [
            103.92999999999999,
            1.4291006783940812
          ],
          [
            103.92999999999999,
            1.4008993216059187
          ],
          [
            103.92999230384204,
            1.400781936581117
          ],
          [
            103.92996934705162,
            1.4006665600466348
          ],
          [
            103.92993152242576,
            1.4005551661269655
          ],
          [
            103.9298794771543,
            1.4004496608029593
          ],
          [
            103.92981410174626,
            1.4003518492999611
          ],
          [
            103.92973651479302,
            1.4002634051999059
          ],
          [
            103.9296480438288,
            1.4001858418058668
          ],
          [
            103.92955020261641,
            1.4001204862490209
          ],
          [
            103.92944466524607,
            1.400068456781065
          ],
          [
            103.92933323749145,
            1.400030643640622
          ],
          [
            103.92921782591233,
            1.4000076938210082
          ],
          [
            103.92910040523283,
            1.4
          ],
          [
            103.90000000000002,
            1.4
          ]
        ]
      },
      "properties": {
        "ofm": "line",
        "id": "line-pwl",
        "name": "Punggol West LRT",
        "mode": "Monorail",
        "minRadius": 100,
        "color": "#748477",
        "visible": true,
        "nodes": [
          [
            1.4,
            103.9
          ],
          [
            1.43,
            103.9
          ],
          [
            1.43,
            103.93
          ],
          [
            1.4,
            103.93
          ],
          [
            1.4,
            103.9
          ]
        ],
        "segments": [
          {
            "profile": "manual",
            "guide": []
          },
          {
            "profile": "manual",
            "guide": []
          },
          {
            "profile": "manual",
            "guide": []
          },
          {
            "profile": "manual",
            "guide": []
          }
        ],
        "branchOf": null
      }
    },
    {
      "type": "Feature",
      "geometry": {
        "type": "Point",
        "coordinates": [
          103.90000000000002,
          1.4
        ]
      },
      "properties": {
        "ofm": "station",
        "id": "station-ptc",
        "lineId": "line-pwl",
        "name": "Punggol",
        "code": "PTC",
        "t": 0
      }
    },
    {
      "type": "Feature",
      "geometry": {
        "type": "Point",
        "coordinates": [
          103.92000002405283,
          1.43
        ]
      },
      "properties": {
        "ofm": "station",
        "id": "station-pw1",
        "lineId": "line-pwl",
        "name": "Sam Kee",
        "code": "PW1",
        "t": 0.41749402468929186
      }
    },
    {
      "type": "Feature",
      "geometry": {
        "type": "Point",
        "coordinates": [
          103.92999999999999,
          1.4100000384247935
        ]
      },
      "properties": {
        "ofm": "station",
        "id": "station-pw2",
        "lineId": "line-pwl",
        "name": "Teck Lee",
        "code": "PW2",
        "t": 0.6666921495439961
      }
    }
  ]
}
